[{"OBJECT_NAME":"SHIYAN-21 (SY-21)","OBJECT_ID":"2022-172A","EPOCH":"2026-03-09T23:40:42.191616","MEAN_MOTION":15.28197132,"ECCENTRICITY":0.00206059,"INCLINATION":35.9768,"RA_OF_ASC_NODE":332.6944,"ARG_OF_PERICENTER":79.3933,"MEAN_ANOMALY":280.9121,"EPHEMERIS_TYPE":0,"CLASSIFICATION_TYPE":"U","NORAD_CAT_ID":54752,"ELEMENT_SET_NO":999,"REV_AT_EPOCH":18050,"BSTAR":0.00041186164,"MEAN_MOTION_DOT":0.00011616,"MEAN_MOTION_DDOT":0},{"OBJECT_NAME":"STARLINK-32172","OBJECT_ID":"2024-183K","EPOCH":"2026-03-09T11:51:18.217440","MEAN_MOTION":15.3018809,"ECCENTRICITY":0.00011252,"INCLINATION":53.1601,"RA_OF_ASC_NODE":143.2666,"ARG_OF_PERICENTER":87.2122,"MEAN_ANOMALY":272.9008,"EPHEMERIS_TYPE":0,"CLASSIFICATION_TYPE":"U","NORAD_CAT_ID":61518,"ELEMENT_SET_NO":999,"REV_AT_EPOCH":7962,"BSTAR":4.1759336e-5,"MEAN_MOTION_DOT":8.77e-6,"MEAN_MOTION_DDOT":0}]
